{
"type": "FeatureCollection",
"name": "konya_toplanma",
"crs": { "type": "name", "properties": { "name": "urn:ogc:def:crs:OGC:1.3:CRS84" } },
"features": [
{ "type": "Feature", "properties": { "ADI": "Ahırlı  Şehit Samet Bütün Ortaokulu" }, "geometry": { "type": "Point", "coordinates": [ 32.117952379549415, 37.23873684932046 ] } },
{ "type": "Feature", "properties": { "ADI": "Akkise Atatürk İlkokulu" }, "geometry": { "type": "Point", "coordinates": [ 32.131617028753979, 37.364329143127975 ] } },
{ "type": "Feature", "properties": { "ADI": "Akören Arif Bilge Spor Tesisleri" }, "geometry": { "type": "Point", "coordinates": [ 32.373989276002419, 37.457987406432409 ] } },
{ "type": "Feature", "properties": { "ADI": "Akören Şehit Jandarma Astsubay Çavuş Mehmet Tarlacı Parkı ve Spor Sahası" }, "geometry": { "type": "Point", "coordinates": [ 32.36322805341733, 37.456513714048832 ] } },
{ "type": "Feature", "properties": { "ADI": "Akşehir Atatürk Parkı" }, "geometry": { "type": "Point", "coordinates": [ 31.415144019251322, 38.359833618027572 ] } },
{ "type": "Feature", "properties": { "ADI": "Akşehir Belediye Parkı" }, "geometry": { "type": "Point", "coordinates": [ 31.411126013412009, 38.358448100218737 ] } },
{ "type": "Feature", "properties": { "ADI": "Akşehir Nasreddin Hoca Gülmece Parkı" }, "geometry": { "type": "Point", "coordinates": [ 31.417344039211244, 38.356460659796873 ] } },
{ "type": "Feature", "properties": { "ADI": "Akşehir Pazar Alanı" }, "geometry": { "type": "Point", "coordinates": [ 31.426444141012748, 38.359076640308743 ] } },
{ "type": "Feature", "properties": { "ADI": "Akşehir Stadyumu" }, "geometry": { "type": "Point", "coordinates": [ 31.419707915830955, 38.361787141741381 ] } },
{ "type": "Feature", "properties": { "ADI": "Akşehir Hıdırlık Parkı, Açıkhava Tiyatrosu  ve Komek Kurs Merkezi" }, "geometry": { "type": "Point", "coordinates": [ 31.414670316596503, 38.348826912590319 ] } },
{ "type": "Feature", "properties": { "ADI": "Akşehir Spor Kompleksi" }, "geometry": { "type": "Point", "coordinates": [ 31.441335292671642, 38.352957207938424 ] } },
{ "type": "Feature", "properties": { "ADI": "Altınekin Stadyumu ve Kapalı Spor Salonu" }, "geometry": { "type": "Point", "coordinates": [ 32.860641274651833, 38.30365623147501 ] } },
{ "type": "Feature", "properties": { "ADI": "Altınekin Kale Höyüğü Parkı" }, "geometry": { "type": "Point", "coordinates": [ 32.871294750305815, 38.309540913254843 ] } },
{ "type": "Feature", "properties": { "ADI": "Altınekin Toki Parkı" }, "geometry": { "type": "Point", "coordinates": [ 32.878054938923555, 38.299765290348297 ] } },
{ "type": "Feature", "properties": { "ADI": "Beyşehir Cumartesi Pazarı ve Çim Saha" }, "geometry": { "type": "Point", "coordinates": [ 31.734649339373185, 37.669487402211445 ] } },
{ "type": "Feature", "properties": { "ADI": "Beyşehir Kapalı Spor Salonu ve Eski Stadyum" }, "geometry": { "type": "Point", "coordinates": [ 31.717107489207251, 37.688347356701556 ] } },
{ "type": "Feature", "properties": { "ADI": "Beyşehir Vuslat Parkı" }, "geometry": { "type": "Point", "coordinates": [ 31.717455423376844, 37.674826923566336 ] } },
{ "type": "Feature", "properties": { "ADI": "Bozkır Çim Saha" }, "geometry": { "type": "Point", "coordinates": [ 32.254957083661502, 37.193668795495213 ] } },
{ "type": "Feature", "properties": { "ADI": "Bozkır Kapalı Pazar Alanı" }, "geometry": { "type": "Point", "coordinates": [ 32.243698468316111, 37.189664394917124 ] } },
{ "type": "Feature", "properties": { "ADI": "Konya Büyükşehir Belediyesi Sarıoğlan Fen Işleri" }, "geometry": { "type": "Point", "coordinates": [ 32.551678411599916, 37.215241184166707 ] } },
{ "type": "Feature", "properties": { "ADI": "Bozkır Meslek Yüksekokulu ve Anadolu Lisesi" }, "geometry": { "type": "Point", "coordinates": [ 32.227951015502349, 37.193980053336254 ] } },
{ "type": "Feature", "properties": { "ADI": "Cihanbeyli 15 Temmuz Şehitler Parkı" }, "geometry": { "type": "Point", "coordinates": [ 32.92283446200905, 38.641817948153196 ] } },
{ "type": "Feature", "properties": { "ADI": "Cihanbeyli Kapalı Pazar ve Stadyum" }, "geometry": { "type": "Point", "coordinates": [ 32.933413789444622, 38.65159451521729 ] } },
{ "type": "Feature", "properties": { "ADI": "Çeltik Stadyumu" }, "geometry": { "type": "Point", "coordinates": [ 31.795931258103817, 39.018057786005727 ] } },
{ "type": "Feature", "properties": { "ADI": "Çeltik Belediye Sosyal Tesisleri" }, "geometry": { "type": "Point", "coordinates": [ 31.800918640518368, 39.026910168395972 ] } },
{ "type": "Feature", "properties": { "ADI": "Çumra Durmuş Ali Çalık Şehir Stadyumu" }, "geometry": { "type": "Point", "coordinates": [ 32.772754107921195, 37.570188791465263 ] } },
{ "type": "Feature", "properties": { "ADI": "Çumra Dr. Devlet Bahçeli Parkı" }, "geometry": { "type": "Point", "coordinates": [ 32.771779699776324, 37.575092341276651 ] } },
{ "type": "Feature", "properties": { "ADI": "Çumra Recep Tayyip Erdoğan Spor Tesisi ve Parkı" }, "geometry": { "type": "Point", "coordinates": [ 32.795291349392542, 37.565842926456256 ] } },
{ "type": "Feature", "properties": { "ADI": "Çumra Sırçalı Mesire Alanı" }, "geometry": { "type": "Point", "coordinates": [ 32.743123177980173, 37.571686197583837 ] } },
{ "type": "Feature", "properties": { "ADI": "Derbent Stadyumu" }, "geometry": { "type": "Point", "coordinates": [ 32.019077870887649, 38.020861158546083 ] } },
{ "type": "Feature", "properties": { "ADI": "Derbent Kapalı Pazar ve Kültür Merkezi" }, "geometry": { "type": "Point", "coordinates": [ 32.012835437543963, 38.01515491754293 ] } },
{ "type": "Feature", "properties": { "ADI": "Derebucak Şehit Hüseyin Albaşğil İlkokulu" }, "geometry": { "type": "Point", "coordinates": [ 31.507920051933738, 37.39068842825867 ] } },
{ "type": "Feature", "properties": { "ADI": "Derebucak Stadyumu" }, "geometry": { "type": "Point", "coordinates": [ 31.499072563332543, 37.398010185866617 ] } },
{ "type": "Feature", "properties": { "ADI": "Doğanhisar Stadyumu" }, "geometry": { "type": "Point", "coordinates": [ 31.664198757190256, 38.154043557194555 ] } },
{ "type": "Feature", "properties": { "ADI": "Doğanhisar Anadolu Lisesi" }, "geometry": { "type": "Point", "coordinates": [ 31.678444213608483, 38.149296493608844 ] } },
{ "type": "Feature", "properties": { "ADI": "Doğanhisar Halk Pazarı ve Otogar" }, "geometry": { "type": "Point", "coordinates": [ 31.676121785855575, 38.144912406926956 ] } },
{ "type": "Feature", "properties": { "ADI": "Konya Büyükşehir Belediyesi Doğanhisar Parkı" }, "geometry": { "type": "Point", "coordinates": [ 31.672492586867257, 38.131574826539527 ] } },
{ "type": "Feature", "properties": { "ADI": "Emirgazi Park Alanı" }, "geometry": { "type": "Point", "coordinates": [ 33.835996542959613, 37.901646972117852 ] } },
{ "type": "Feature", "properties": { "ADI": "Emirgazi Pazar Yeri ve Park" }, "geometry": { "type": "Point", "coordinates": [ 33.835801674192112, 37.902558722370941 ] } },
{ "type": "Feature", "properties": { "ADI": "Emirgazi Stadyumu" }, "geometry": { "type": "Point", "coordinates": [ 33.83629239698692, 37.891724327285388 ] } },
{ "type": "Feature", "properties": { "ADI": "Emirgazi Demirci İlkokulu" }, "geometry": { "type": "Point", "coordinates": [ 33.931968895477887, 38.036921835346163 ] } },
{ "type": "Feature", "properties": { "ADI": "Ereğli Kwangjin Parkı" }, "geometry": { "type": "Point", "coordinates": [ 34.051334745297254, 37.503747851447969 ] } },
{ "type": "Feature", "properties": { "ADI": "Ereğli Yunus Emre ve 15 Temmuz Parkı" }, "geometry": { "type": "Point", "coordinates": [ 34.050991009483084, 37.510251746577246 ] } },
{ "type": "Feature", "properties": { "ADI": "Ereğli Stadyumu" }, "geometry": { "type": "Point", "coordinates": [ 34.044393095928775, 37.524525340084324 ] } },
{ "type": "Feature", "properties": { "ADI": "Ereğli Pazar Alanı" }, "geometry": { "type": "Point", "coordinates": [ 34.046458734251068, 37.502371746920261 ] } },
{ "type": "Feature", "properties": { "ADI": "Ereğli Üniversite Yerleşkesi" }, "geometry": { "type": "Point", "coordinates": [ 34.056877560003464, 37.466429563795678 ] } },
{ "type": "Feature", "properties": { "ADI": "Ereğli Atatürk Kültür Parkı" }, "geometry": { "type": "Point", "coordinates": [ 34.065734817008384, 37.534445798511648 ] } },
{ "type": "Feature", "properties": { "ADI": "Güneysınır Stadyumu" }, "geometry": { "type": "Point", "coordinates": [ 32.724102484988265, 37.310855494396804 ] } },
{ "type": "Feature", "properties": { "ADI": "Güneysınır Güneybağ İlkokulu" }, "geometry": { "type": "Point", "coordinates": [ 32.728382938665703, 37.27063241372602 ] } },
{ "type": "Feature", "properties": { "ADI": "Hadim Berika Parkı ve Stadyum" }, "geometry": { "type": "Point", "coordinates": [ 32.46534098845261, 36.990246636965232 ] } },
{ "type": "Feature", "properties": { "ADI": "Hadim Futbol Sahası ve Kiraz Hali" }, "geometry": { "type": "Point", "coordinates": [ 32.438318476244227, 36.976306503993769 ] } },
{ "type": "Feature", "properties": { "ADI": "Halkapınar Toki Parkı" }, "geometry": { "type": "Point", "coordinates": [ 34.195571885798202, 37.440630405236909 ] } },
{ "type": "Feature", "properties": { "ADI": "Halkapınar Atatürk İlkokulu ve Arif Arık Çok Proğramlı Anadolu Lisesi" }, "geometry": { "type": "Point", "coordinates": [ 34.185496146426274, 37.435041802208673 ] } },
{ "type": "Feature", "properties": { "ADI": "Hüyük Park Alanı" }, "geometry": { "type": "Point", "coordinates": [ 31.597852974550783, 37.947875529237386 ] } },
{ "type": "Feature", "properties": { "ADI": "Hüyük Stadyumu" }, "geometry": { "type": "Point", "coordinates": [ 31.591920301896188, 37.946609726370347 ] } },
{ "type": "Feature", "properties": { "ADI": "Hüyük Park Alanı" }, "geometry": { "type": "Point", "coordinates": [ 31.597619215921597, 37.961519190020184 ] } },
{ "type": "Feature", "properties": { "ADI": "Hüyük İmrenler Mesleki ve Teknik Anadolu Lisesi ile Stadyum" }, "geometry": { "type": "Point", "coordinates": [ 31.668585071516411, 37.917173617803805 ] } },
{ "type": "Feature", "properties": { "ADI": "Ilgın Lala Parkı" }, "geometry": { "type": "Point", "coordinates": [ 31.916619282241147, 38.28146987152661 ] } },
{ "type": "Feature", "properties": { "ADI": "Ilgın İnönü İlkokulu" }, "geometry": { "type": "Point", "coordinates": [ 31.901118415736587, 38.275884765276238 ] } },
{ "type": "Feature", "properties": { "ADI": "Ilgın Ahmet Ali Gezgin İlkokulu" }, "geometry": { "type": "Point", "coordinates": [ 31.878728583990661, 38.284108331242194 ] } },
{ "type": "Feature", "properties": { "ADI": "Ilgın Kanal Parkı" }, "geometry": { "type": "Point", "coordinates": [ 31.896999502203649, 38.282384897701412 ] } },
{ "type": "Feature", "properties": { "ADI": "Ilgın Fahrettin Altay Parkı" }, "geometry": { "type": "Point", "coordinates": [ 31.90677149737451, 38.277365040626009 ] } },
{ "type": "Feature", "properties": { "ADI": "Ilgın Kapalı Halk Pazarı" }, "geometry": { "type": "Point", "coordinates": [ 31.916686937891416, 38.283742297323734 ] } },
{ "type": "Feature", "properties": { "ADI": "Ilgın Stadyumu" }, "geometry": { "type": "Point", "coordinates": [ 31.891856860486918, 38.275179877423312 ] } },
{ "type": "Feature", "properties": { "ADI": "Ilgın Argıthanı Cumhuriyet İlkokulu" }, "geometry": { "type": "Point", "coordinates": [ 31.717677648940821, 38.287873007008791 ] } },
{ "type": "Feature", "properties": { "ADI": "Ilgın Argıthanı Halk Pazarı ve Otogar" }, "geometry": { "type": "Point", "coordinates": [ 31.713458361885404, 38.291930537654252 ] } },
{ "type": "Feature", "properties": { "ADI": "Kadınhanı Atlantı Cumhuriyet Ortaokulu ve Stadyum" }, "geometry": { "type": "Point", "coordinates": [ 32.165486993911095, 38.444559033739203 ] } },
{ "type": "Feature", "properties": { "ADI": "Kadınhanı Stadyumu" }, "geometry": { "type": "Point", "coordinates": [ 32.204503333295648, 38.243168638548887 ] } },
{ "type": "Feature", "properties": { "ADI": "Kadınhanı Kültür Merkezi ve Park" }, "geometry": { "type": "Point", "coordinates": [ 32.231316526793535, 38.237632548564115 ] } },
{ "type": "Feature", "properties": { "ADI": "Karapınar A. Hamdi Mutlu Hatıra Ormanı" }, "geometry": { "type": "Point", "coordinates": [ 33.549897050180199, 37.730209694973624 ] } },
{ "type": "Feature", "properties": { "ADI": "Karapınar 100. Yıl Parkı" }, "geometry": { "type": "Point", "coordinates": [ 33.511292910238978, 37.716369786846478 ] } },
{ "type": "Feature", "properties": { "ADI": "Karapınar Stadyumu" }, "geometry": { "type": "Point", "coordinates": [ 33.555995112417811, 37.716600627405072 ] } },
{ "type": "Feature", "properties": { "ADI": "Karapınar Ali Tepe Dinlenme Parkı" }, "geometry": { "type": "Point", "coordinates": [ 33.544239975500041, 37.711841418088355 ] } },
{ "type": "Feature", "properties": { "ADI": "Karatay Aşkar Höyüğü Parkı" }, "geometry": { "type": "Point", "coordinates": [ 32.528170240333843, 37.898910094339513 ] } },
{ "type": "Feature", "properties": { "ADI": "Karatay Şekerciler Parkı" }, "geometry": { "type": "Point", "coordinates": [ 32.529922754208364, 37.906799549876403 ] } },
{ "type": "Feature", "properties": { "ADI": "Karatay Muhsin Yazıcıoğlu Parkı" }, "geometry": { "type": "Point", "coordinates": [ 32.530658059160977, 37.875346886706467 ] } },
{ "type": "Feature", "properties": { "ADI": "Konya Büyükşehir Belediyesi Spor ve Kongre Merkezi" }, "geometry": { "type": "Point", "coordinates": [ 32.533378376857591, 37.870049885242103 ] } },
{ "type": "Feature", "properties": { "ADI": "Karatay Adalet Parkı" }, "geometry": { "type": "Point", "coordinates": [ 32.540148242790721, 37.865982928027805 ] } },
{ "type": "Feature", "properties": { "ADI": "Mevlana Kültür Merkezi" }, "geometry": { "type": "Point", "coordinates": [ 32.515413259856331, 37.869304914368939 ] } },
{ "type": "Feature", "properties": { "ADI": "Karatay Olimpiyat Parkı" }, "geometry": { "type": "Point", "coordinates": [ 32.537384674785358, 37.808153492012643 ] } },
{ "type": "Feature", "properties": { "ADI": "Karatay Şehir Parkı" }, "geometry": { "type": "Point", "coordinates": [ 32.550974220435641, 37.873685516631312 ] } },
{ "type": "Feature", "properties": { "ADI": "Kulu Olof Palme Parkı" }, "geometry": { "type": "Point", "coordinates": [ 33.07063940459426, 39.090369657845642 ] } },
{ "type": "Feature", "properties": { "ADI": "Kulu 80. Yıl Cumhuriyet Parkı" }, "geometry": { "type": "Point", "coordinates": [ 33.080229363079113, 39.095215519019533 ] } },
{ "type": "Feature", "properties": { "ADI": "Kulu Kapalı Pazar Alanı" }, "geometry": { "type": "Point", "coordinates": [ 33.084107654555524, 39.093091118294552 ] } },
{ "type": "Feature", "properties": { "ADI": "Kulu Stadyumu ve Park" }, "geometry": { "type": "Point", "coordinates": [ 33.089639408588567, 39.08869356218247 ] } },
{ "type": "Feature", "properties": { "ADI": "Meram Şehit Erol Olçok Parkı" }, "geometry": { "type": "Point", "coordinates": [ 32.458729324944635, 37.877147132579452 ] } },
{ "type": "Feature", "properties": { "ADI": "Meram Evliya Çelebi Parkı" }, "geometry": { "type": "Point", "coordinates": [ 32.455351894294331, 37.865360990434482 ] } },
{ "type": "Feature", "properties": { "ADI": "Meram Gödene Parkı" }, "geometry": { "type": "Point", "coordinates": [ 32.403127680248922, 37.741084537446 ] } },
{ "type": "Feature", "properties": { "ADI": "Meram Berlika Parkı" }, "geometry": { "type": "Point", "coordinates": [ 32.44116817737482, 37.845699291354613 ] } },
{ "type": "Feature", "properties": { "ADI": "Meram Karaaslan Hadimi Parkı" }, "geometry": { "type": "Point", "coordinates": [ 32.51718018192458, 37.808848582277363 ] } },
{ "type": "Feature", "properties": { "ADI": "Meram Tavusbaba Parkı" }, "geometry": { "type": "Point", "coordinates": [ 32.418328779809251, 37.849283095866895 ] } },
{ "type": "Feature", "properties": { "ADI": "Meram Dutlu Kültür Parkı" }, "geometry": { "type": "Point", "coordinates": [ 32.397175724302365, 37.82274641133494 ] } },
{ "type": "Feature", "properties": { "ADI": "Sarayönü Stadyumu" }, "geometry": { "type": "Point", "coordinates": [ 32.399405102781856, 38.263737121887473 ] } },
{ "type": "Feature", "properties": { "ADI": "Sarayönü Ladik Stadyumu" }, "geometry": { "type": "Point", "coordinates": [ 32.381811082104193, 38.191666613520965 ] } },
{ "type": "Feature", "properties": { "ADI": "Selçuklu Kardelen Parkı" }, "geometry": { "type": "Point", "coordinates": [ 32.526669895800346, 37.994487586571545 ] } },
{ "type": "Feature", "properties": { "ADI": "Selçuklu Salı Pazarı" }, "geometry": { "type": "Point", "coordinates": [ 32.479472034249355, 37.892467154359018 ] } },
{ "type": "Feature", "properties": { "ADI": "Selçuklu MTA Parkı" }, "geometry": { "type": "Point", "coordinates": [ 32.523765418813397, 37.962290030102203 ] } },
{ "type": "Feature", "properties": { "ADI": "Selçuklu Japon Parkı" }, "geometry": { "type": "Point", "coordinates": [ 32.518157055706006, 37.978305171501994 ] } },
{ "type": "Feature", "properties": { "ADI": "Selçuklu Yazır Mahalle Parkı" }, "geometry": { "type": "Point", "coordinates": [ 32.506604985925016, 37.961713321424263 ] } },
{ "type": "Feature", "properties": { "ADI": "Selçuklu Sancaktepe Parkı" }, "geometry": { "type": "Point", "coordinates": [ 32.529651065727336, 37.952834172608299 ] } },
{ "type": "Feature", "properties": { "ADI": "Selçuklu Eski Sanayi Parkı" }, "geometry": { "type": "Point", "coordinates": [ 32.499088771318853, 37.901446846693588 ] } },
{ "type": "Feature", "properties": { "ADI": "Selçuklu Saray Bosna Parkı" }, "geometry": { "type": "Point", "coordinates": [ 32.5292913677388, 38.010966473216932 ] } },
{ "type": "Feature", "properties": { "ADI": "Selçuklu Ahmet Keleşoğlu Kültür Merkezi ve Parkı" }, "geometry": { "type": "Point", "coordinates": [ 32.465972604723845, 37.886045891129669 ] } },
{ "type": "Feature", "properties": { "ADI": "Selçuklu Kalehan - Ecdat Parkı" }, "geometry": { "type": "Point", "coordinates": [ 32.500849566846938, 37.952134634771298 ] } },
{ "type": "Feature", "properties": { "ADI": "Selçuklu Kanyon Parkı" }, "geometry": { "type": "Point", "coordinates": [ 32.493085843053976, 37.959488418929119 ] } },
{ "type": "Feature", "properties": { "ADI": "Kültür Park" }, "geometry": { "type": "Point", "coordinates": [ 32.489104365870674, 37.874896822244786 ] } },
{ "type": "Feature", "properties": { "ADI": "Selçuklu Selahaddin Eyyubi Parkı" }, "geometry": { "type": "Point", "coordinates": [ 32.500275279130769, 37.931353262013012 ] } },
{ "type": "Feature", "properties": { "ADI": "Selçuklu Kelebekler Vadisi" }, "geometry": { "type": "Point", "coordinates": [ 32.464846856723163, 37.949907002241012 ] } },
{ "type": "Feature", "properties": { "ADI": "Selçuklu Türk Yıldızları Parkı" }, "geometry": { "type": "Point", "coordinates": [ 32.560000978596484, 37.95789673304985 ] } },
{ "type": "Feature", "properties": { "ADI": "Konya Büyükşehir Stadyumu" }, "geometry": { "type": "Point", "coordinates": [ 32.485318867593612, 37.945137056550202 ] } },
{ "type": "Feature", "properties": { "ADI": "Seydişehir Belediye Parkı" }, "geometry": { "type": "Point", "coordinates": [ 31.84818002556144, 37.424782011838133 ] } },
{ "type": "Feature", "properties": { "ADI": "Seydişehir Gaziler ve Şehitler Parkı ile Necip Fazıl Kısakürek Parkı" }, "geometry": { "type": "Point", "coordinates": [ 31.854110947996027, 37.421764751323565 ] } },
{ "type": "Feature", "properties": { "ADI": "Seydişehir Kapalı Pazar Alanı" }, "geometry": { "type": "Point", "coordinates": [ 31.843121726281261, 37.421125177827435 ] } },
{ "type": "Feature", "properties": { "ADI": "Seydişehir Kuğulu Park Mesire Yeri" }, "geometry": { "type": "Point", "coordinates": [ 31.841207511236238, 37.390999584331595 ] } },
{ "type": "Feature", "properties": { "ADI": "Taşkent Belediye Garajı" }, "geometry": { "type": "Point", "coordinates": [ 32.49457191202324, 36.927607424483604 ] } },
{ "type": "Feature", "properties": { "ADI": "Taşkent Stadyumu" }, "geometry": { "type": "Point", "coordinates": [ 32.497696739274879, 36.910735410941733 ] } },
{ "type": "Feature", "properties": { "ADI": "Taşkent Balcılar Halı Saha Alanı" }, "geometry": { "type": "Point", "coordinates": [ 32.683945862648805, 36.886417405419202 ] } },
{ "type": "Feature", "properties": { "ADI": "Tuzlukçu İlkokulu" }, "geometry": { "type": "Point", "coordinates": [ 31.628691021714619, 38.473818989660195 ] } },
{ "type": "Feature", "properties": { "ADI": "Tuzlukçu Şehit Birol Parkı" }, "geometry": { "type": "Point", "coordinates": [ 31.627864774016441, 38.474586750808662 ] } },
{ "type": "Feature", "properties": { "ADI": "Tuzlukçu Stadyumu" }, "geometry": { "type": "Point", "coordinates": [ 31.634677305053589, 38.470019223471603 ] } },
{ "type": "Feature", "properties": { "ADI": "Yalıhüyük Belediye Parkı ve Garaj" }, "geometry": { "type": "Point", "coordinates": [ 32.083953172213398, 37.29728102849284 ] } },
{ "type": "Feature", "properties": { "ADI": "Yunak Halk Pazarı" }, "geometry": { "type": "Point", "coordinates": [ 31.73239139160026, 38.813777196229765 ] } },
{ "type": "Feature", "properties": { "ADI": "Yunak Yeşil Alan ve Fidanlık" }, "geometry": { "type": "Point", "coordinates": [ 31.735787906555665, 38.812516238903463 ] } },
{ "type": "Feature", "properties": { "ADI": "Yunak Mesire Alanı" }, "geometry": { "type": "Point", "coordinates": [ 31.721712324022207, 38.82287639620904 ] } },
{ "type": "Feature", "properties": { "ADI": "Yunak Park Alanı" }, "geometry": { "type": "Point", "coordinates": [ 31.728861748331095, 38.814185418767416 ] } }
]
}
